#aV2020  5 27  0  0  0.00000000     288 DD+AD WGS84 FIT  NGA
## 2107 259200.00000000   300.00000000 58996 0.0000000000000
+   32     1  2  3  4  5  6  7  8  9 10 11 12 13 14 15 16 17
+         18 19 20 21 22 23 24 25 26 27 28 29 30 31 32  0  0
+          0  0  0  0  0  0  0  0  0  0  0  0  0  0  0  0  0
+          0  0  0  0  0  0  0  0  0  0  0  0  0  0  0  0  0
+          0  0  0  0  0  0  0  0  0  0  0  0  0  0  0  0  0
++         2  2  2  2  2  2  2  2  2  2  2  2  2  2  2  2  2
++         2  2  2  2  2  2  2  2  2  2  2  2  2  2  2  0  0
++         0  0  0  0  0  0  0  0  0  0  0  0  0  0  0  0  0
++         0  0  0  0  0  0  0  0  0  0  0  0  0  0  0  0  0
++         0  0  0  0  0  0  0  0  0  0  0  0  0  0  0  0  0
%c cc cc ccc ccc cccc cccc cccc cccc ccccc ccccc ccccc ccccc
%c cc cc ccc ccc cccc cccc cccc cccc ccccc ccccc ccccc ccccc
%f  0.0000000  0.000000000  0.00000000000  0.000000000000000
%f  0.0000000  0.000000000  0.00000000000  0.000000000000000
%i    0    0    0    0      0      0      0      0         0
%i    0    0    0    0      0      0      0      0         0
/*      NGA, ST. LOUIS,MO.                                  
/*   EPHEMERIS COMPUTED FROM 2 DAYS OF DATA                 
/*   EPOCHA v5 SMOOTHER                                     
/*   G1762 IERS2010 SATAF SATAPC                            
*  2020  5 27  0  5  0.00000000
P  1   4835.796362  14278.002878 -22112.501453   -385.531721                    
V  1 -27177.051727   3911.253737  -3123.684208     -0.042166                    
P  2  17535.014631 -14285.916198  14518.973510   -462.338660                    
V  2  17402.426842  -1780.015165 -23881.344381     -0.060901                    
P  3  11064.520734  22854.200124  -8029.619891   -188.732906                    
V  3  -8142.808193  -6406.949367 -29572.914165     -0.125821                    
P  4   2577.152089  21411.137831  15496.236084    -94.554421                    
V  4  -9658.173674  17254.913267 -22281.957135     -0.049146                    
P  5   6359.081484 -15209.948604  20647.740574    -13.437274                    
V  5  17965.385320  19646.889529   9076.970279     -0.007359                    
P  6  25220.605830  -6987.401085   4723.079280   -278.522761                    
V  6   6158.508508   1212.525432 -31401.547700     -0.064989                    
P  7  21971.630559   6953.050958  13929.254173   -290.261755                    
V  7 -16580.383357   4228.505845  24102.445195     -0.087387                    
P  8  -5560.779132  25259.903721  -5392.396621    -35.394264                    
V  8  -4945.059166   5518.142885  31122.307690     -0.012848                    
P  9  11357.307225  11876.499526  20815.719705   -224.883744                    
V  9 -10148.977610  24573.794499  -8480.040948     -0.071516                    
P 10 -19636.486309  -5756.071405 -16971.499370   -353.036854                    
V 10 -12276.644627 -17861.242238  19926.975423     -0.113916                    
P 11  -4338.901199  19853.740042 -17742.988668   -266.093071                    
V 11 -18873.568712  10787.038337  16848.180300      0.106892                    
P 12  -8989.874492 -23565.516304  -8813.034916    113.294500                    
V 12   7677.555925   7819.277873 -29384.432143     -0.044249                    
P 13  13200.913124 -22972.735262    721.722488     13.223625                    
V 13   1846.755531   2224.377791  31948.464616      0.031131                    
P 14 -17503.776914  14265.010502 -13483.517321    -10.237407                    
V 14   5623.812432 -17045.819625 -24880.205508      0.026438                    
P 15   2266.391335 -25592.064783  -6208.997365   -228.485292                    
V 15   5850.600269  -6279.081834  29885.584459      0.025973                    
P 16  -6009.890067  15652.021268  20264.490363   -162.971375                    
V 16 -15401.522722 -21343.730284  12222.156931     -0.045688                    
P 17  16768.051593  -5493.337936 -19417.195962    271.096392                    
V 17  -9725.360415  23628.637367 -14809.665790      0.060139                    
P 18 -21409.956328  -7141.445171  14010.642776    202.048631                    
V 18  17400.245286  -4247.510648  24387.806357      0.115310                    
P 19  17991.625131 -12542.146925 -15265.879797   -153.456034                    
V 19  -7347.754417  17384.505724 -23428.060530      0.050853                    
P 20 -21787.892140 -13731.789245  -7025.048672    527.625191                    
V 20  -4081.217122  -8453.122813  29291.200465     -0.000573                    
P 21 -24086.743909  -2926.011906  11257.260263      3.764288                    
V 21  12403.797607  -5398.208176  27238.994615      0.048792                    
P 22   4575.158070  21247.893546 -15148.465490   -780.823337                    
V 22 -15397.005865 -12472.495710 -21696.118898      0.015794                    
P 23  13891.051160   7739.129655  21648.056218   -110.929006                    
V 23  -9625.147843  24868.278210  -3157.713756      0.031478                    
P 24  -3457.760215 -15446.178160 -21525.228591    -13.525075                    
V 24  26410.915771  -5447.484599     29.366893     -0.004635                    
P 25 -16467.424812 -21022.802218   -244.549534      7.411417                    
V 25   1924.583880  -1502.558707 -31688.399788      0.032883                    
P 26 -14914.415083   5969.908586  21143.820928    213.915619                    
V 26 -17085.425390 -20848.584753  -5935.037845      0.071069                    
P 27 -12465.448308  22695.973577   4896.646474   -304.336732                    
V 27     14.333633  -6920.419365  31538.498355     -0.100708                    
P 28  18179.852062   5852.683552 -17813.073243    714.009802                    
V 28  11740.113738  20782.113739  18363.646020     -0.031877                    
P 29  -7446.895180 -15490.533139  20196.101693   -113.627898                    
V 29  11816.529389 -22823.458021 -13143.488368     -0.088112                    
P 30  26408.196094   -220.795474   3812.060146   -228.663253                    
V 30  -4372.093619   3792.656514  30626.870788     -0.080615                    
P 31 -25036.219751   7353.520724   6070.515385    -45.045911                    
V 31  -7905.475838  -1482.724241 -30154.345082     -0.025303                    
P 32 -17038.753236   6764.289961 -19083.158603    288.364812                    
V 32   7416.562553 -23368.563824 -14983.804061      0.073698                    
EOF
